CCSDS_OEM_VERS = 1.0
CREATION_DATE  = 2017-05-11T11:01:54
ORIGINATOR     = GMAT USER

META_START
OBJECT_NAME          = MOPSSat_alt_35785_km_RAAN_0_081
OBJECT_ID            = SatId
CENTER_NAME          = Earth
REF_FRAME            = EME2000
TIME_SYSTEM          = UTC
START_TIME           = 2017-01-01T00:00:00.000
USEABLE_START_TIME   = 2017-01-01T00:00:00.000
USEABLE_STOP_TIME    = 2017-01-02T00:00:00.000
STOP_TIME            = 2017-01-02T00:00:00.000
INTERPOLATION        = Lagrange
INTERPOLATION_DEGREE = 7 
META_STOP


                                                                                   

2017-01-01T22:45:50.000   3.973125830626195e+04  -1.286436799047723e+04  -1.538798649357222e+00   9.471893909941277e-01   2.956124209476056e+00  -1.263882521612825e-04
2017-01-01T22:46:00.000   3.974071932722245e+04  -1.283480323177337e+04  -1.540062290942251e+00   9.450147493918962e-01   2.956827377779456e+00  -1.263400547651532e-04
2017-01-01T22:46:10.000   3.975015859920460e+04  -1.280523144914681e+04  -1.541325450116010e+00   9.428395757636171e-01   2.957528932636032e+00  -1.262917672825108e-04
2017-01-01T22:46:20.000   3.975957611688316e+04  -1.277565265876648e+04  -1.542588125976245e+00   9.406638713290268e-01   2.958228873628129e+00  -1.262433897175654e-04
2017-01-01T22:46:30.000   3.976897187495192e+04  -1.274606687678480e+04  -1.543850317621641e+00   9.384876373066910e-01   2.958927200339562e+00  -1.261949220745663e-04
2017-01-01T22:46:40.000   3.977834586809468e+04  -1.271647411942732e+04  -1.545112024147970e+00   9.363108749205951e-01   2.959623912353436e+00  -1.261463643579474e-04
2017-01-01T22:46:50.000   3.978769809099768e+04  -1.268687440295840e+04  -1.546373244649611e+00   9.341335853976216e-01   2.960319009253089e+00  -1.260977165722722e-04
2017-01-01T22:47:00.000   3.979702853835370e+04  -1.265726774366420e+04  -1.547633978220234e+00   9.319557699662987e-01   2.961012490622386e+00  -1.260489787222063e-04
2017-01-01T22:47:10.000   3.980633720487323e+04  -1.262765415781728e+04  -1.548894223954303e+00   9.297774298541943e-01   2.961704356046551e+00  -1.260001508124570e-04
2017-01-01T22:47:20.000   3.981562408529089e+04  -1.259803366166041e+04  -1.550153980947816e+00   9.275985662867280e-01   2.962394605112645e+00  -1.259512328477564e-04
2017-01-01T22:47:30.000   3.982488917437491e+04  -1.256840627137118e+04  -1.551413248299752e+00   9.254191804845644e-01   2.963083237410273e+00  -1.259022248327921e-04
2017-01-01T22:47:40.000   3.983413246689965e+04  -1.253877200315222e+04  -1.552672025108262e+00   9.232392736702535e-01   2.963770252529538e+00  -1.258531267723615e-04
2017-01-01T22:47:50.000   3.984335395776505e+04  -1.250913087284004e+04  -1.553930310487205e+00   9.210588470394511e-01   2.964455650069922e+00  -1.258039386707107e-04
2017-01-01T22:48:00.000   3.985255364185149e+04  -1.247948289637886e+04  -1.555188103546101e+00   9.188779017957766e-01   2.965139429629494e+00  -1.257546605323318e-04
2017-01-01T22:48:10.000   3.986173151407468e+04  -1.244982808964156e+04  -1.556445403397708e+00   9.166964391376449e-01   2.965821590808997e+00  -1.257052923616630e-04
2017-01-01T22:48:20.000   3.987088756917111e+04  -1.242016646912301e+04  -1.557702209128635e+00   9.145144603092651e-01   2.966502133195897e+00  -1.256558341642461e-04
2017-01-01T22:48:30.000   3.988002180191291e+04  -1.239049805124682e+04  -1.558958519828733e+00   9.123319665496429e-01   2.967181056380351e+00  -1.256062859455699e-04
2017-01-01T22:48:40.000   3.988913420705223e+04  -1.236082285254413e+04  -1.560214334583511e+00   9.101489591057378e-01   2.967858359951075e+00  -1.255566477113679e-04
2017-01-01T22:48:50.000   3.989822477946910e+04  -1.233114088918062e+04  -1.561469652494242e+00   9.079654391976648e-01   2.968534043506333e+00  -1.255069194668323e-04
2017-01-01T22:49:00.000   3.990729351404902e+04  -1.230145217734672e+04  -1.562724472661358e+00   9.057814080473982e-01   2.969208106644847e+00  -1.254571012172618e-04
2017-01-01T22:49:10.000   3.991634040571126e+04  -1.227175673316762e+04  -1.563978794188287e+00   9.035968668721575e-01   2.969880548967885e+00  -1.254071929679121e-04
2017-01-01T22:49:20.000   3.992536544939659e+04  -1.224205457273779e+04  -1.565232616179933e+00   9.014118168869363e-01   2.970551370078363e+00  -1.253571947240511e-04
2017-01-01T22:49:30.000   3.993436864006353e+04  -1.221234571213791e+04  -1.566485937742012e+00   8.992262593057601e-01   2.971220569580556e+00  -1.253071064909892e-04
2017-01-01T22:49:40.000   3.994334997267750e+04  -1.218263016747048e+04  -1.567738757979541e+00   8.970401953442926e-01   2.971888147079301e+00  -1.252569282741402e-04
2017-01-01T22:49:50.000   3.995230944220458e+04  -1.215290795487597e+04  -1.568991075996119e+00   8.948536262210371e-01   2.972554102179529e+00  -1.252066600790421e-04
2017-01-01T22:50:00.000   3.996124704360244e+04  -1.212317909056837e+04  -1.570242890892483e+00   8.926665531599389e-01   2.973218434485584e+00  -1.251563019114249e-04
2017-01-01T22:50:10.000   3.997016277184690e+04  -1.209344359074457e+04  -1.571494201770301e+00   8.904789773837297e-01   2.973881143603213e+00  -1.251058537770537e-04
2017-01-01T22:50:20.000   3.997905662181663e+04  -1.206370147197690e+04  -1.572745007715728e+00   8.882909001427994e-01   2.974542229130979e+00  -1.250553156824038e-04
2017-01-01T22:50:30.000   3.998792858843332e+04  -1.203395275073763e+04  -1.573995307819346e+00   8.861023226802167e-01   2.975201690670693e+00  -1.250046876338452e-04
2017-01-01T22:50:40.000   3.999677866660941e+04  -1.200419744357569e+04  -1.575245101168738e+00   8.839132462447307e-01   2.975859527823518e+00  -1.249539696379453e-04
2017-01-01T22:50:50.000   4.000560685145174e+04  -1.197443556643234e+04  -1.576494386877254e+00   8.817236720404220e-01   2.976515740205115e+00  -1.249031617003026e-04
2017-01-01T22:51:00.000   4.001441313805818e+04  -1.194466713532366e+04  -1.577743164055313e+00   8.795336012769168e-01   2.977170327430523e+00  -1.248522638267090e-04
2017-01-01T22:51:10.000   4.002319752156414e+04  -1.191489216618606e+04  -1.578991431816926e+00   8.773430351580191e-01   2.977823289117617e+00  -1.248012760228881e-04
2017-01-01T22:51:20.000   4.003195999702572e+04  -1.188511067526097e+04  -1.580239189263450e+00   8.751519749100103e-01   2.978474624878423e+00  -1.247501982951408e-04
2017-01-01T22:51:30.000   4.004070055950734e+04  -1.185532267880947e+04  -1.581486435495667e+00   8.729604217606556e-01   2.979124334325626e+00  -1.246990306498708e-04
2017-01-01T22:51:40.000   4.004941920408049e+04  -1.182552819311189e+04  -1.582733169613757e+00   8.707683769391780e-01   2.979772417072487e+00  -1.246477730935780e-04
2017-01-01T22:51:50.000   4.005811592574284e+04  -1.179572723475518e+04  -1.583979390705378e+00   8.685758416973974e-01   2.980418872726821e+00  -1.245964256333675e-04
2017-01-01T22:52:00.000   4.006679071952835e+04  -1.176591982024618e+04  -1.585225097861748e+00   8.663828172812790e-01   2.981063700899188e+00  -1.245449882762707e-04
2017-01-01T22:52:10.000   4.007544358046361e+04  -1.173610596616388e+04  -1.586470290171307e+00   8.641893049421333e-01   2.981706901199644e+00  -1.244934610295104e-04
2017-01-01T22:52:20.000   4.008407450376308e+04  -1.170628568848660e+04  -1.587714966747811e+00   8.619953058871180e-01   2.982348473252260e+00  -1.244418438993356e-04
2017-01-01T22:52:30.000   4.009268348463367e+04  -1.167645900326469e+04  -1.588959126702234e+00   8.598008213287289e-01   2.982988416680584e+00  -1.243901368921859e-04
2017-01-01T22:52:40.000   4.010127051831924e+04  -1.164662592646858e+04  -1.590202769149128e+00   8.576058524736188e-01   2.983626731110962e+00  -1.243383400144300e-04
2017-01-01T22:52:50.000   4.010983559998639e+04  -1.161678647437423e+04  -1.591445893190449e+00   8.554104005509562e-01   2.984263416164040e+00  -1.242864532730278e-04
2017-01-01T22:53:00.000   4.011837872481017e+04  -1.158694066327717e+04  -1.592688497927583e+00   8.532144667913913e-01   2.984898471461138e+00  -1.242344766750409e-04
2017-01-01T22:53:10.000   4.012689988797280e+04  -1.155708850949217e+04  -1.593930582461326e+00   8.510180524270232e-01   2.985531896624157e+00  -1.241824102276294e-04
2017-01-01T22:53:20.000   4.013539908458479e+04  -1.152723002964107e+04  -1.595172145880004e+00   8.488211587125868e-01   2.986163691269708e+00  -1.241302539385605e-04
2017-01-01T22:53:30.000   4.014387630979235e+04  -1.149736524026538e+04  -1.596413187275500e+00   8.466237868969427e-01   2.986793855017109e+00  -1.240780078155264e-04
2017-01-01T22:53:40.000   4.015233155873398e+04  -1.146749415798167e+04  -1.597653705736811e+00   8.444259382345125e-01   2.987422387485144e+00  -1.240256718664174e-04
2017-01-01T22:53:50.000   4.016076482673451e+04  -1.143761679879620e+04  -1.598893700378515e+00   8.422276139348508e-01   2.988049288306497e+00  -1.239732460981245e-04
2017-01-01T22:54:00.000   4.016917610911027e+04  -1.140773317879196e+04  -1.600133170312229e+00   8.400288152131943e-01   2.988674557113265e+00  -1.239207305177387e-04
2017-01-01T22:54:10.000   4.017756540121970e+04  -1.137784331395137e+04  -1.601372114653985e+00   8.378295432774180e-01   2.989298193540723e+00  -1.238681251322429e-04
2017-01-01T22:54:20.000   4.018593269832680e+04  -1.134794722063282e+04  -1.602610532504385e+00   8.356297993630963e-01   2.989920197217171e+00  -1.238154299493377e-04
2017-01-01T22:54:30.000   4.019427799571423e+04  -1.131804491517749e+04  -1.603848422964991e+00   8.334295847045774e-01   2.990540567772340e+00  -1.237626449767619e-04
2017-01-01T22:54:40.000   4.020260128865790e+04  -1.128813641399712e+04  -1.605085785134658e+00   8.312289005414346e-01   2.991159304835510e+00  -1.237097702224438e-04
2017-01-01T22:54:50.000   4.021090257243534e+04  -1.125822173355049e+04  -1.606322618110573e+00   8.290277481167431e-01   2.991776408036125e+00  -1.236568056944687e-04
